{
 "type": "FeatureCollection",
 "features": [
  {
   "type": "Feature",
   "geometry": {
    "type": "LineString",
    "coordinates": [
     [
      104.300267,
      30.840815
     ],
     [
      104.330571,
      30.85576
     ],
     [
      104.323054,
      30.860039
     ],
     [
      104.253962,
      30.887052
     ],
     [
      104.253582,
      30.90011
     ],
     [
      104.071998,
      30.683402
     ],
     [
      104.300267,
      30.840815
     ]
    ]
   },
   "properties": {
    "trip_id": "T01",
    "n_stops": 5,
    "load_kg": 1321.8,
    "distance_km": 90.98,
    "poi_ids": [
     "P032",
     "P036",
     "P037",
     "P027",
     "P018"
    ],
    "window_start_min": [
     623,
     833,
     862,
     834,
     877
    ],
    "window_end_min": [
     708,
     914,
     948,
     922,
     959
    ],
    "arrival_min": [
     623.0,
     833.0,
     865.9,
     886.4,
     947.1
    ],
    "n_orders": [
     2,
     4,
     3,
     3,
     6
    ],
    "plan": "baseline"
   }
  },
  {
   "type": "Feature",
   "geometry": {
    "type": "LineString",
    "coordinates": [
     [
      104.300267,
      30.840815
     ],
     [
      104.276426,
      30.875299
     ],
     [
      104.269502,
      30.876837
     ],
     [
      104.253652,
      30.878095
     ],
     [
      104.246885,
      30.877313
     ],
     [
      104.061775,
      30.681195
     ],
     [
      104.300267,
      30.840815
     ]
    ]
   },
   "properties": {
    "trip_id": "T02",
    "n_stops": 5,
    "load_kg": 1315.9,
    "distance_km": 86.23,
    "poi_ids": [
     "P031",
     "P039",
     "P029",
     "P033",
     "P020"
    ],
    "window_start_min": [
     607,
     715,
     696,
     785,
     904
    ],
    "window_end_min": [
     697,
     805,
     782,
     872,
     992
    ],
    "arrival_min": [
     607.0,
     715.0,
     734.4,
     785.0,
     904.0
    ],
    "n_orders": [
     1,
     1,
     4,
     3,
     4
    ],
    "plan": "baseline"
   }
  },
  {
   "type": "Feature",
   "geometry": {
    "type": "LineString",
    "coordinates": [
     [
      104.300267,
      30.840815
     ],
     [
      104.313922,
      30.880419
     ],
     [
      104.201632,
      30.877318
     ],
     [
      104.188354,
      30.87079
     ],
     [
      103.991901,
      30.737566
     ],
     [
      103.919653,
      30.752444
     ],
     [
      104.300267,
      30.840815
     ]
    ]
   },
   "properties": {
    "trip_id": "T03",
    "n_stops": 5,
    "load_kg": 722.0,
    "distance_km": 108.5,
    "poi_ids": [
     "P026",
     "P034",
     "P030",
     "P013",
     "P015"
    ],
    "window_start_min": [
     731,
     714,
     722,
     909,
     857
    ],
    "window_end_min": [
     821,
     800,
     805,
     991,
     947
    ],
    "arrival_min": [
     731.0,
     772.4,
     792.6,
     909.0,
     944.6
    ],
    "n_orders": [
     1,
     2,
     4,
     2,
     1
    ],
    "plan": "baseline"
   }
  },
  {
   "type": "Feature",
   "geometry": {
    "type": "LineString",
    "coordinates": [
     [
      104.300267,
      30.840815
     ],
     [
      104.284321,
      30.880989
     ],
     [
      104.131787,
      30.627615
     ],
     [
      104.107695,
      30.637048
     ],
     [
      104.300267,
      30.840815
     ]
    ]
   },
   "properties": {
    "trip_id": "T04",
    "n_stops": 3,
    "load_kg": 1183.6,
    "distance_km": 89.02,
    "poi_ids": [
     "P038",
     "P002",
     "P023"
    ],
    "window_start_min": [
     807,
     838,
     854
    ],
    "window_end_min": [
     889,
     928,
     944
    ],
    "arrival_min": [
     807.0,
     866.5,
     892.7
    ],
    "n_orders": [
     6,
     2,
     1
    ],
    "plan": "baseline"
   }
  },
  {
   "type": "Feature",
   "geometry": {
    "type": "LineString",
    "coordinates": [
     [
      104.300267,
      30.840815
     ],
     [
      104.256388,
      30.892152
     ],
     [
      104.244552,
      30.889503
     ],
     [
      104.081893,
      30.655003
     ],
     [
      104.077199,
      30.641639
     ],
     [
      104.129707,
      30.628761
     ],
     [
      104.032527,
      30.669557
     ],
     [
      104.300267,
      30.840815
     ]
    ]
   },
   "properties": {
    "trip_id": "T05",
    "n_stops": 6,
    "load_kg": 1248.1,
    "distance_km": 110.95,
    "poi_ids": [
     "P028",
     "P035",
     "P021",
     "P006",
     "P005",
     "P044"
    ],
    "window_start_min": [
     539,
     682,
     768,
     722,
     773,
     882
    ],
    "window_end_min": [
     625,
     763,
     849,
     805,
     862,
     962
    ],
    "arrival_min": [
     539.0,
     682.0,
     768.0,
     800.2,
     837.7,
     887.6
    ],
    "n_orders": [
     3,
     3,
     3,
     2,
     2,
     4
    ],
    "plan": "baseline"
   }
  },
  {
   "type": "Feature",
   "geometry": {
    "type": "LineString",
    "coordinates": [
     [
      104.300267,
      30.840815
     ],
     [
      104.135375,
      30.623625
     ],
     [
      104.132763,
      30.627528
     ],
     [
      104.142752,
      30.595134
     ],
     [
      104.273346,
      30.559846
     ],
     [
      104.300267,
      30.840815
     ]
    ]
   },
   "properties": {
    "trip_id": "T06",
    "n_stops": 4,
    "load_kg": 1260.7,
    "distance_km": 100.34,
    "poi_ids": [
     "P001",
     "P003",
     "P024",
     "P049"
    ],
    "window_start_min": [
     531,
     682,
     759,
     752
    ],
    "window_end_min": [
     616,
     772,
     845,
     837
    ],
    "arrival_min": [
     531.0,
     682.0,
     759.0,
     807.4
    ],
    "n_orders": [
     3,
     1,
     2,
     4
    ],
    "plan": "baseline"
   }
  },
  {
   "type": "Feature",
   "geometry": {
    "type": "LineString",
    "coordinates": [
     [
      104.300267,
      30.840815
     ],
     [
      104.082047,
      30.660437
     ],
     [
      104.072081,
      30.658735
     ],
     [
      104.071944,
      30.68395
     ],
     [
      104.072004,
      30.684929
     ],
     [
      104.058121,
      30.541191
     ],
     [
      104.269392,
      30.566865
     ],
     [
      104.300267,
      30.840815
     ]
    ]
   },
   "properties": {
    "trip_id": "T07",
    "n_stops": 6,
    "load_kg": 1122.5,
    "distance_km": 129.54,
    "poi_ids": [
     "P022",
     "P025",
     "P017",
     "P019",
     "P008",
     "P047"
    ],
    "window_start_min": [
     642,
     688,
     680,
     702,
     762,
     812
    ],
    "window_end_min": [
     724,
     778,
     767,
     792,
     844,
     897
    ],
    "arrival_min": [
     642.0,
     688.0,
     717.0,
     734.0,
     797.8,
     863.4
    ],
    "n_orders": [
     3,
     2,
     2,
     1,
     2,
     7
    ],
    "plan": "baseline"
   }
  },
  {
   "type": "Feature",
   "geometry": {
    "type": "LineString",
    "coordinates": [
     [
      104.300267,
      30.840815
     ],
     [
      104.099234,
      30.648748
     ],
     [
      104.052373,
      30.668819
     ],
     [
      103.995986,
      30.648731
     ],
     [
      103.907862,
      30.807642
     ],
     [
      104.300267,
      30.840815
     ]
    ]
   },
   "properties": {
    "trip_id": "T08",
    "n_stops": 4,
    "load_kg": 789.6,
    "distance_km": 127.07,
    "poi_ids": [
     "P004",
     "P043",
     "P009",
     "P012"
    ],
    "window_start_min": [
     616,
     630,
     674,
     711
    ],
    "window_end_min": [
     697,
     712,
     764,
     801
    ],
    "arrival_min": [
     616.0,
     651.5,
     688.1,
     741.4
    ],
    "n_orders": [
     5,
     6,
     1,
     1
    ],
    "plan": "baseline"
   }
  },
  {
   "type": "Feature",
   "geometry": {
    "type": "LineString",
    "coordinates": [
     [
      104.300267,
      30.840815
     ],
     [
      104.308338,
      30.606726
     ],
     [
      104.27333,
      30.560098
     ],
     [
      104.300267,
      30.840815
     ]
    ]
   },
   "properties": {
    "trip_id": "T09",
    "n_stops": 2,
    "load_kg": 377.4,
    "distance_km": 94.28,
    "poi_ids": [
     "P046",
     "P048"
    ],
    "window_start_min": [
     615,
     677
    ],
    "window_end_min": [
     695,
     757
    ],
    "arrival_min": [
     615.0,
     677.0
    ],
    "n_orders": [
     6,
     3
    ],
    "plan": "baseline"
   }
  },
  {
   "type": "Feature",
   "geometry": {
    "type": "LineString",
    "coordinates": [
     [
      104.300267,
      30.840815
     ],
     [
      103.975737,
      30.758309
     ],
     [
      103.921214,
      30.750831
     ],
     [
      103.961452,
      30.670211
     ],
     [
      104.300267,
      30.840815
     ]
    ]
   },
   "properties": {
    "trip_id": "T10",
    "n_stops": 3,
    "load_kg": 1236.3,
    "distance_km": 112.67,
    "poi_ids": [
     "P011",
     "P014",
     "P041"
    ],
    "window_start_min": [
     622,
     581,
     662
    ],
    "window_end_min": [
     706,
     667,
     745
    ],
    "arrival_min": [
     622.0,
     654.2,
     693.5
    ],
    "n_orders": [
     4,
     3,
     5
    ],
    "plan": "baseline"
   }
  },
  {
   "type": "Feature",
   "geometry": {
    "type": "LineString",
    "coordinates": [
     [
      104.300267,
      30.840815
     ],
     [
      104.208007,
      30.532247
     ],
     [
      104.045915,
      30.545712
     ],
     [
      104.300267,
      30.840815
     ]
    ]
   },
   "properties": {
    "trip_id": "T11",
    "n_stops": 2,
    "load_kg": 207.1,
    "distance_km": 120.58,
    "poi_ids": [
     "P045",
     "P010"
    ],
    "window_start_min": [
     574,
     577
    ],
    "window_end_min": [
     664,
     666
    ],
    "arrival_min": [
     574.0,
     626.5
    ],
    "n_orders": [
     1,
     3
    ],
    "plan": "baseline"
   }
  }
 ]
}