{
 "type": "FeatureCollection",
 "features": [
  {
   "type": "Feature",
   "geometry": {
    "type": "LineString",
    "coordinates": [
     [
      104.300267,
      30.840815
     ],
     [
      104.276426,
      30.875299
     ],
     [
      104.244552,
      30.889503
     ],
     [
      104.201632,
      30.877318
     ],
     [
      104.246885,
      30.877313
     ],
     [
      104.300267,
      30.840815
     ]
    ]
   },
   "properties": {
    "trip_id": "T01",
    "n_stops": 4,
    "load_kg": 861.4,
    "distance_km": 28.94,
    "poi_ids": [
     "P031",
     "P035",
     "P034",
     "P033"
    ],
    "window_start_min": [
     607,
     682,
     714,
     785
    ],
    "window_end_min": [
     697,
     763,
     800,
     872
    ],
    "arrival_min": [
     607.0,
     682.0,
     714.0,
     785.0
    ],
    "n_orders": [
     1,
     3,
     2,
     3
    ],
    "plan": "optimized"
   }
  },
  {
   "type": "Feature",
   "geometry": {
    "type": "LineString",
    "coordinates": [
     [
      104.300267,
      30.840815
     ],
     [
      104.330571,
      30.85576
     ],
     [
      104.253652,
      30.878095
     ],
     [
      104.313922,
      30.880419
     ],
     [
      104.323054,
      30.860039
     ],
     [
      104.300267,
      30.840815
     ]
    ]
   },
   "properties": {
    "trip_id": "T02",
    "n_stops": 4,
    "load_kg": 1258.2,
    "distance_km": 29.53,
    "poi_ids": [
     "P032",
     "P029",
     "P026",
     "P036"
    ],
    "window_start_min": [
     623,
     696,
     731,
     833
    ],
    "window_end_min": [
     708,
     782,
     821,
     914
    ],
    "arrival_min": [
     623.0,
     696.0,
     731.0,
     833.0
    ],
    "n_orders": [
     2,
     4,
     1,
     4
    ],
    "plan": "optimized"
   }
  },
  {
   "type": "Feature",
   "geometry": {
    "type": "LineString",
    "coordinates": [
     [
      104.300267,
      30.840815
     ],
     [
      104.308338,
      30.606726
     ],
     [
      104.072081,
      30.658735
     ],
     [
      104.077199,
      30.641639
     ],
     [
      104.129707,
      30.628761
     ],
     [
      104.131787,
      30.627615
     ],
     [
      104.300267,
      30.840815
     ]
    ]
   },
   "properties": {
    "trip_id": "T03",
    "n_stops": 5,
    "load_kg": 861.4,
    "distance_km": 116.01,
    "poi_ids": [
     "P046",
     "P025",
     "P006",
     "P005",
     "P002"
    ],
    "window_start_min": [
     615,
     688,
     722,
     773,
     838
    ],
    "window_end_min": [
     695,
     778,
     805,
     862,
     928
    ],
    "arrival_min": [
     615.0,
     688.0,
     722.0,
     773.0,
     838.0
    ],
    "n_orders": [
     6,
     2,
     2,
     2,
     2
    ],
    "plan": "optimized"
   }
  },
  {
   "type": "Feature",
   "geometry": {
    "type": "LineString",
    "coordinates": [
     [
      104.300267,
      30.840815
     ],
     [
      104.208007,
      30.532247
     ],
     [
      104.27333,
      30.560098
     ],
     [
      104.273346,
      30.559846
     ],
     [
      104.269392,
      30.566865
     ],
     [
      104.300267,
      30.840815
     ]
    ]
   },
   "properties": {
    "trip_id": "T04",
    "n_stops": 4,
    "load_kg": 904.1,
    "distance_km": 97.27,
    "poi_ids": [
     "P045",
     "P048",
     "P049",
     "P047"
    ],
    "window_start_min": [
     574,
     677,
     752,
     812
    ],
    "window_end_min": [
     664,
     757,
     837,
     897
    ],
    "arrival_min": [
     574.0,
     677.0,
     752.0,
     812.0
    ],
    "n_orders": [
     1,
     3,
     4,
     7
    ],
    "plan": "optimized"
   }
  },
  {
   "type": "Feature",
   "geometry": {
    "type": "LineString",
    "coordinates": [
     [
      104.300267,
      30.840815
     ],
     [
      104.135375,
      30.623625
     ],
     [
      104.099234,
      30.648748
     ],
     [
      104.132763,
      30.627528
     ],
     [
      104.142752,
      30.595134
     ],
     [
      104.107695,
      30.637048
     ],
     [
      104.300267,
      30.840815
     ]
    ]
   },
   "properties": {
    "trip_id": "T05",
    "n_stops": 5,
    "load_kg": 1319.7,
    "distance_km": 96.94,
    "poi_ids": [
     "P001",
     "P004",
     "P003",
     "P024",
     "P023"
    ],
    "window_start_min": [
     531,
     616,
     682,
     759,
     854
    ],
    "window_end_min": [
     616,
     697,
     772,
     845,
     944
    ],
    "arrival_min": [
     531.0,
     616.0,
     682.0,
     759.0,
     854.0
    ],
    "n_orders": [
     3,
     5,
     1,
     2,
     1
    ],
    "plan": "optimized"
   }
  },
  {
   "type": "Feature",
   "geometry": {
    "type": "LineString",
    "coordinates": [
     [
      104.300267,
      30.840815
     ],
     [
      104.045915,
      30.545712
     ],
     [
      103.961452,
      30.670211
     ],
     [
      103.907862,
      30.807642
     ],
     [
      103.919653,
      30.752444
     ],
     [
      103.991901,
      30.737566
     ],
     [
      104.300267,
      30.840815
     ]
    ]
   },
   "properties": {
    "trip_id": "T06",
    "n_stops": 5,
    "load_kg": 1024.4,
    "distance_km": 159.75,
    "poi_ids": [
     "P010",
     "P041",
     "P012",
     "P015",
     "P013"
    ],
    "window_start_min": [
     577,
     662,
     711,
     857,
     909
    ],
    "window_end_min": [
     666,
     745,
     801,
     947,
     991
    ],
    "arrival_min": [
     577.0,
     662.0,
     711.0,
     857.0,
     909.0
    ],
    "n_orders": [
     3,
     5,
     1,
     1,
     2
    ],
    "plan": "optimized"
   }
  },
  {
   "type": "Feature",
   "geometry": {
    "type": "LineString",
    "coordinates": [
     [
      104.300267,
      30.840815
     ],
     [
      103.921214,
      30.750831
     ],
     [
      103.975737,
      30.758309
     ],
     [
      104.188354,
      30.87079
     ],
     [
      104.253582,
      30.90011
     ],
     [
      104.253962,
      30.887052
     ],
     [
      104.300267,
      30.840815
     ]
    ]
   },
   "properties": {
    "trip_id": "T07",
    "n_stops": 5,
    "load_kg": 961.6,
    "distance_km": 104.88,
    "poi_ids": [
     "P014",
     "P011",
     "P030",
     "P027",
     "P037"
    ],
    "window_start_min": [
     581,
     622,
     722,
     834,
     862
    ],
    "window_end_min": [
     667,
     706,
     805,
     922,
     948
    ],
    "arrival_min": [
     581.0,
     622.0,
     722.0,
     834.0,
     862.0
    ],
    "n_orders": [
     3,
     4,
     4,
     3,
     3
    ],
    "plan": "optimized"
   }
  },
  {
   "type": "Feature",
   "geometry": {
    "type": "LineString",
    "coordinates": [
     [
      104.300267,
      30.840815
     ],
     [
      104.052373,
      30.668819
     ],
     [
      103.995986,
      30.648731
     ],
     [
      104.058121,
      30.541191
     ],
     [
      104.071998,
      30.683402
     ],
     [
      104.061775,
      30.681195
     ],
     [
      104.300267,
      30.840815
     ]
    ]
   },
   "properties": {
    "trip_id": "T08",
    "n_stops": 5,
    "load_kg": 1028.9,
    "distance_km": 127.84,
    "poi_ids": [
     "P043",
     "P009",
     "P008",
     "P018",
     "P020"
    ],
    "window_start_min": [
     630,
     674,
     762,
     877,
     904
    ],
    "window_end_min": [
     712,
     764,
     844,
     959,
     992
    ],
    "arrival_min": [
     630.0,
     674.0,
     762.0,
     877.0,
     904.0
    ],
    "n_orders": [
     6,
     1,
     2,
     6,
     4
    ],
    "plan": "optimized"
   }
  },
  {
   "type": "Feature",
   "geometry": {
    "type": "LineString",
    "coordinates": [
     [
      104.300267,
      30.840815
     ],
     [
      104.256388,
      30.892152
     ],
     [
      104.269502,
      30.876837
     ],
     [
      104.284321,
      30.880989
     ],
     [
      104.300267,
      30.840815
     ]
    ]
   },
   "properties": {
    "trip_id": "T09",
    "n_stops": 3,
    "load_kg": 1302.6,
    "distance_km": 21.02,
    "poi_ids": [
     "P028",
     "P039",
     "P038"
    ],
    "window_start_min": [
     539,
     715,
     807
    ],
    "window_end_min": [
     625,
     805,
     889
    ],
    "arrival_min": [
     539.0,
     715.0,
     807.0
    ],
    "n_orders": [
     3,
     1,
     6
    ],
    "plan": "optimized"
   }
  },
  {
   "type": "Feature",
   "geometry": {
    "type": "LineString",
    "coordinates": [
     [
      104.300267,
      30.840815
     ],
     [
      104.082047,
      30.660437
     ],
     [
      104.071944,
      30.68395
     ],
     [
      104.072004,
      30.684929
     ],
     [
      104.081893,
      30.655003
     ],
     [
      104.032527,
      30.669557
     ],
     [
      104.300267,
      30.840815
     ]
    ]
   },
   "properties": {
    "trip_id": "T10",
    "n_stops": 5,
    "load_kg": 1262.7,
    "distance_km": 93.99,
    "poi_ids": [
     "P022",
     "P017",
     "P019",
     "P021",
     "P044"
    ],
    "window_start_min": [
     642,
     680,
     702,
     768,
     882
    ],
    "window_end_min": [
     724,
     767,
     792,
     849,
     962
    ],
    "arrival_min": [
     642.0,
     680.0,
     702.0,
     768.0,
     882.0
    ],
    "n_orders": [
     3,
     2,
     1,
     3,
     4
    ],
    "plan": "optimized"
   }
  }
 ]
}